{
    "links": {
        "self": "http://www.neowsapp.com/rest/v1/neo/3797677?api_key=iIulBulltgU6a56xZRHN4H3l9WmuAYTsLGpBGhQ2"
    },
    "id": "3797677",
    "neo_reference_id": "3797677",
    "name": "(2018 AC12)",
    "designation": "2018 AC12",
    "nasa_jpl_url": "http://ssd.jpl.nasa.gov/sbdb.cgi?sstr=3797677",
    "absolute_magnitude_h": 25.4,
    "estimated_diameter": {
        "kilometers": {
            "estimated_diameter_min": 0.022108281,
            "estimated_diameter_max": 0.0494356193
        },
        "meters": {
            "estimated_diameter_min": 22.1082810359,
            "estimated_diameter_max": 49.435619262
        },
        "miles": {
            "estimated_diameter_min": 0.0137374447,
            "estimated_diameter_max": 0.0307178602
        },
        "feet": {
            "estimated_diameter_min": 72.5337327539,
            "estimated_diameter_max": 162.1903570994
        }
    },
    "is_potentially_hazardous_asteroid": false,
    "close_approach_data": [
        {
            "close_approach_date": "1924-10-14",
            "close_approach_date_full": "1924-Oct-14 00:37",
            "epoch_date_close_approach": -1426893780000,
            "relative_velocity": {
                "kilometers_per_second": "20.9636037338",
                "kilometers_per_hour": "75468.9734417419",
                "miles_per_hour": "46893.4851921757"
            },
            "miss_distance": {
                "astronomical": "0.4933354412",
                "lunar": "191.9074866268",
                "kilometers": "73801931.199030244",
                "miles": "45858393.5651116072"
            },
            "orbiting_body": "Earth"
        },
        {
            "close_approach_date": "2008-10-23",
            "close_approach_date_full": "2008-Oct-23 02:48",
            "epoch_date_close_approach": 1224730080000,
            "relative_velocity": {
                "kilometers_per_second": "17.164909958",
                "kilometers_per_hour": "61793.675848813",
                "miles_per_hour": "38396.1870850583"
            },
            "miss_distance": {
                "astronomical": "0.3755926278",
                "lunar": "146.1055322142",
                "kilometers": "56187857.106582786",
                "miles": "34913515.4448070068"
            },
            "orbiting_body": "Earth"
        },
        {
            "close_approach_date": "2018-01-12",
            "close_approach_date_full": "2018-Jan-12 03:47",
            "epoch_date_close_approach": 1515728820000,
            "relative_velocity": {
                "kilometers_per_second": "7.8043433328",
                "kilometers_per_hour": "28095.6359981775",
                "miles_per_hour": "17457.5356012009"
            },
            "miss_distance": {
                "astronomical": "0.0342587281",
                "lunar": "13.3266452309",
                "kilometers": "5125032.752669147",
                "miles": "3184547.6830703486"
            },
            "orbiting_body": "Earth"
        },
        {
            "close_approach_date": "2027-02-19",
            "close_approach_date_full": "2027-Feb-19 12:16",
            "epoch_date_close_approach": 1803039360000,
            "relative_velocity": {
                "kilometers_per_second": "21.7151335109",
                "kilometers_per_hour": "78174.4806391626",
                "miles_per_hour": "48574.5821504841"
            },
            "miss_distance": {
                "astronomical": "0.4875219724",
                "lunar": "189.6460472636",
                "kilometers": "72932248.649238788",
                "miles": "45317997.8871517544"
            },
            "orbiting_body": "Earth"
        }
    ],
    "orbital_data": {
        "orbit_id": "6",
        "orbit_determination_date": "2018-02-14 06:17:24",
        "first_observation_date": "2018-01-14",
        "last_observation_date": "2018-02-12",
        "data_arc_in_days": 29,
        "observations_used": 44,
        "orbit_uncertainty": "7",
        "minimum_orbit_intersection": ".03275",
        "jupiter_tisserand_invariant": "4.041",
        "epoch_osculation": "2459000.5",
        "eccentricity": ".4348619338861673",
        "semi_major_axis": "1.726726225665213",
        "inclination": "7.847471031549538",
        "ascending_node_longitude": "302.8696809296819",
        "orbital_period": "828.7692989081721",
        "perihelion_distance": ".9758387198804757",
        "perihelion_argument": "144.2465945332846",
        "aphelion_distance": "2.477613731449949",
        "perihelion_time": "2458939.226114051616",
        "mean_anomaly": "26.61609083550576",
        "mean_motion": ".4343790249883377",
        "equinox": "J2000",
        "orbit_class": {
            "orbit_class_type": "APO",
            "orbit_class_description": "Near-Earth asteroid orbits which cross the Earth’s orbit similar to that of 1862 Apollo",
            "orbit_class_range": "a (semi-major axis) > 1.0 AU; q (perihelion) < 1.017 AU"
        }
    },
    "is_sentry_object": false
}